SAOCOM 1A               
1 43641U 18076A   26085.50313245  .00000262  00000+0  39507-4 0  9991
2 43641  97.8907 273.4382 0001496  85.9815 274.1570 14.82158326403851
H-2A R/B                
1 43682U 18084L   26085.54290737  .00019154  00000+0  44617-3 0  9996
2 43682  98.8711 306.5404 0023967 326.7333  33.2402 15.42046506408374
SAOCOM 1B               
1 46265U 20059A   26085.53436503  .00000332  00000+0  48304-4 0  9999
2 46265  97.8906 272.5667 0001463  88.6494 271.4886 14.82152715301244
CSS (TIANHE)            
1 48274U 21035A   26085.47667690  .00022078  00000+0  25348-3 0  9995
2 48274  41.4668 105.9518 0004375  27.8564 332.2509 15.61516360280239
COSMOS 2550             
1 48865U 21056A   26085.73212802 -.00000188  00000+0  11022-6 0  9990
2 48865  67.1429 349.3314 0008311 269.7929  90.2273 15.33831783266072
CZ-2C R/B               
1 52794U 22058K   26084.77221419  .00037524  00000+0  52496-3 0  9996
2 52794  50.1868 235.4871 0041526 269.6026  90.0186 15.55377493212633
CZ-2C R/B               
1 54039U 22132E   26085.46979240  .00046034  00000+0  49499-3 0  9997
2 54039  97.2963  89.3160 0018219  36.9565 323.2945 15.63410774192997
GSLV R/B                
1 54149U 22138AN  26085.23353480  .00002455  00000+0  21043-3 0  9996
2 54149  87.3864 160.8245 0024097  92.1088 268.2903 14.96880005186407
XRISM                   
1 57800U 23137A   26085.54504043  .00005698  00000+0  32080-3 0  9995
2 57800  31.0012 174.6249 0007940 208.9758 151.0440 15.11687851140341
ACS3                    
1 59588U 24077B   26085.41428402  .00013257  00000+0  10478-1 0  9999
2 59588  97.1983  22.7675 0071527  37.9711 322.6465 13.90340975 96524
SZ-21 MODULE            
1 66515U 25246C   26085.42964706  .00035932  00000+0  29374-3 0  9990
2 66515  41.4744 100.2120 0001204 208.6321 151.4455 15.69816747 20702
