[{"OBJECT_NAME":"SAOCOM 1A","OBJECT_ID":"2018-076A","EPOCH":"2026-03-26T12:04:30.643680","MEAN_MOTION":14.82158326,"ECCENTRICITY":0.0001496,"INCLINATION":97.8907,"RA_OF_ASC_NODE":273.4382,"ARG_OF_PERICENTER":85.9815,"MEAN_ANOMALY":274.157,"EPHEMERIS_TYPE":0,"CLASSIFICATION_TYPE":"U","NORAD_CAT_ID":43641,"ELEMENT_SET_NO":999,"REV_AT_EPOCH":40385,"BSTAR":3.9507e-5,"MEAN_MOTION_DOT":2.62e-6,"MEAN_MOTION_DDOT":0},{"OBJECT_NAME":"H-2A R/B","OBJECT_ID":"2018-084L","EPOCH":"2026-03-26T13:01:47.196768","MEAN_MOTION":15.42046506,"ECCENTRICITY":0.0023967,"INCLINATION":98.8711,"RA_OF_ASC_NODE":306.5404,"ARG_OF_PERICENTER":326.7333,"MEAN_ANOMALY":33.2402,"EPHEMERIS_TYPE":0,"CLASSIFICATION_TYPE":"U","NORAD_CAT_ID":43682,"ELEMENT_SET_NO":999,"REV_AT_EPOCH":40837,"BSTAR":0.00044617,"MEAN_MOTION_DOT":0.00019154,"MEAN_MOTION_DDOT":0},{"OBJECT_NAME":"SAOCOM 1B","OBJECT_ID":"2020-059A","EPOCH":"2026-03-26T12:49:29.138592","MEAN_MOTION":14.82152715,"ECCENTRICITY":0.0001463,"INCLINATION":97.8906,"RA_OF_ASC_NODE":272.5667,"ARG_OF_PERICENTER":88.6494,"MEAN_ANOMALY":271.4886,"EPHEMERIS_TYPE":0,"CLASSIFICATION_TYPE":"U","NORAD_CAT_ID":46265,"ELEMENT_SET_NO":999,"REV_AT_EPOCH":30124,"BSTAR":4.8304e-5,"MEAN_MOTION_DOT":3.32e-6,"MEAN_MOTION_DDOT":0},{"OBJECT_NAME":"CSS (TIANHE)","OBJECT_ID":"2021-035A","EPOCH":"2026-03-26T11:26:24.884160","MEAN_MOTION":15.6151636,"ECCENTRICITY":0.0004375,"INCLINATION":41.4668,"RA_OF_ASC_NODE":105.9518,"ARG_OF_PERICENTER":27.8564,"MEAN_ANOMALY":332.2509,"EPHEMERIS_TYPE":0,"CLASSIFICATION_TYPE":"U","NORAD_CAT_ID":48274,"ELEMENT_SET_NO":999,"REV_AT_EPOCH":28023,"BSTAR":0.00025348,"MEAN_MOTION_DOT":0.00022078,"MEAN_MOTION_DDOT":0},{"OBJECT_NAME":"COSMOS 2550","OBJECT_ID":"2021-056A","EPOCH":"2026-03-26T17:34:15.860928","MEAN_MOTION":15.33831783,"ECCENTRICITY":0.0008311,"INCLINATION":67.1429,"RA_OF_ASC_NODE":349.3314,"ARG_OF_PERICENTER":269.7929,"MEAN_ANOMALY":90.2273,"EPHEMERIS_TYPE":0,"CLASSIFICATION_TYPE":"U","NORAD_CAT_ID":48865,"ELEMENT_SET_NO":999,"REV_AT_EPOCH":26607,"BSTAR":1.1022e-7,"MEAN_MOTION_DOT":-1.88e-6,"MEAN_MOTION_DDOT":0},{"OBJECT_NAME":"CZ-2C R/B","OBJECT_ID":"2022-058K","EPOCH":"2026-03-25T18:31:59.306016","MEAN_MOTION":15.55377493,"ECCENTRICITY":0.00415265,"INCLINATION":50.1868,"RA_OF_ASC_NODE":235.4871,"ARG_OF_PERICENTER":269.6026,"MEAN_ANOMALY":90.0186,"EPHEMERIS_TYPE":0,"CLASSIFICATION_TYPE":"U","NORAD_CAT_ID":52794,"ELEMENT_SET_NO":999,"REV_AT_EPOCH":21263,"BSTAR":0.00052496288,"MEAN_MOTION_DOT":0.00037524,"MEAN_MOTION_DDOT":0},{"OBJECT_NAME":"CZ-2C R/B","OBJECT_ID":"2022-132E","EPOCH":"2026-03-26T11:16:30.063360","MEAN_MOTION":15.63410774,"ECCENTRICITY":0.0018219,"INCLINATION":97.2963,"RA_OF_ASC_NODE":89.316,"ARG_OF_PERICENTER":36.9565,"MEAN_ANOMALY":323.2945,"EPHEMERIS_TYPE":0,"CLASSIFICATION_TYPE":"U","NORAD_CAT_ID":54039,"ELEMENT_SET_NO":999,"REV_AT_EPOCH":19299,"BSTAR":0.00049499,"MEAN_MOTION_DOT":0.00046034,"MEAN_MOTION_DDOT":0},{"OBJECT_NAME":"GSLV R/B","OBJECT_ID":"2022-138AN","EPOCH":"2026-03-26T05:36:17.406720","MEAN_MOTION":14.96880005,"ECCENTRICITY":0.0024097,"INCLINATION":87.3864,"RA_OF_ASC_NODE":160.8245,"ARG_OF_PERICENTER":92.1088,"MEAN_ANOMALY":268.2903,"EPHEMERIS_TYPE":0,"CLASSIFICATION_TYPE":"U","NORAD_CAT_ID":54149,"ELEMENT_SET_NO":999,"REV_AT_EPOCH":18640,"BSTAR":0.00021043,"MEAN_MOTION_DOT":2.455e-5,"MEAN_MOTION_DDOT":0},{"OBJECT_NAME":"XRISM","OBJECT_ID":"2023-137A","EPOCH":"2026-03-26T13:04:51.493152","MEAN_MOTION":15.11687851,"ECCENTRICITY":0.000794,"INCLINATION":31.0012,"RA_OF_ASC_NODE":174.6249,"ARG_OF_PERICENTER":208.9758,"MEAN_ANOMALY":151.044,"EPHEMERIS_TYPE":0,"CLASSIFICATION_TYPE":"U","NORAD_CAT_ID":57800,"ELEMENT_SET_NO":999,"REV_AT_EPOCH":14034,"BSTAR":0.0003208,"MEAN_MOTION_DOT":5.698e-5,"MEAN_MOTION_DDOT":0},{"OBJECT_NAME":"ACS3","OBJECT_ID":"2024-077B","EPOCH":"2026-03-26T09:56:34.139328","MEAN_MOTION":13.90340975,"ECCENTRICITY":0.0071527,"INCLINATION":97.1983,"RA_OF_ASC_NODE":22.7675,"ARG_OF_PERICENTER":37.9711,"MEAN_ANOMALY":322.6465,"EPHEMERIS_TYPE":0,"CLASSIFICATION_TYPE":"U","NORAD_CAT_ID":59588,"ELEMENT_SET_NO":999,"REV_AT_EPOCH":9652,"BSTAR":0.010478,"MEAN_MOTION_DOT":0.00013257,"MEAN_MOTION_DDOT":0},{"OBJECT_NAME":"SZ-21 MODULE","OBJECT_ID":"2025-246C","EPOCH":"2026-03-26T10:18:41.505984","MEAN_MOTION":15.69816747,"ECCENTRICITY":0.0001204,"INCLINATION":41.4744,"RA_OF_ASC_NODE":100.212,"ARG_OF_PERICENTER":208.6321,"MEAN_ANOMALY":151.4455,"EPHEMERIS_TYPE":0,"CLASSIFICATION_TYPE":"U","NORAD_CAT_ID":66515,"ELEMENT_SET_NO":999,"REV_AT_EPOCH":2070,"BSTAR":0.00029374,"MEAN_MOTION_DOT":0.00035932,"MEAN_MOTION_DDOT":0}]
